SEMI-1N                 
1 66297U 25248E   26068.02789443  .00007760  00000+0  35122-3 0  9995
2 66297  45.4059 296.6023 0009901 200.0771 159.9728 15.21438314 19297
LEMUR-2-LAILA           
1 66776U 25276DQ  26068.72945049  .00007609  00000+0  35559-3 0  9997
2 66776  97.4243 144.1425 0002283 132.0154 228.1276 15.20071210 15334
